[{"OBJECT_NAME":"DIRECTV 5 (TEMPO 1)","OBJECT_ID":"2002-023A","EPOCH":"2026-03-14T14:49:50.246688","MEAN_MOTION":1.00272226,"ECCENTRICITY":0.00034541,"INCLINATION":4.6349,"RA_OF_ASC_NODE":76.4848,"ARG_OF_PERICENTER":284.748,"MEAN_ANOMALY":283.3557,"EPHEMERIS_TYPE":0,"CLASSIFICATION_TYPE":"U","NORAD_CAT_ID":27426,"ELEMENT_SET_NO":999,"REV_AT_EPOCH":8717,"BSTAR":0,"MEAN_MOTION_DOT":-5.6e-7,"MEAN_MOTION_DDOT":0},{"OBJECT_NAME":"SL-12 R/B(2)","OBJECT_ID":"2002-023D","EPOCH":"2026-03-14T15:20:17.326752","MEAN_MOTION":1.90582557,"ECCENTRICITY":0.541007,"INCLINATION":16.9158,"RA_OF_ASC_NODE":206.8728,"ARG_OF_PERICENTER":51.8298,"MEAN_ANOMALY":80.372,"EPHEMERIS_TYPE":0,"CLASSIFICATION_TYPE":"U","NORAD_CAT_ID":27429,"ELEMENT_SET_NO":999,"REV_AT_EPOCH":16614,"BSTAR":0,"MEAN_MOTION_DOT":-4.3e-7,"MEAN_MOTION_DDOT":0},{"OBJECT_NAME":"INTELSAT 905 (IS-905)","OBJECT_ID":"2002-027A","EPOCH":"2026-03-08T16:38:59.462592","MEAN_MOTION":1.00272811,"ECCENTRICITY":0.00031045,"INCLINATION":6.5009,"RA_OF_ASC_NODE":71.0066,"ARG_OF_PERICENTER":285.0028,"MEAN_ANOMALY":282.9238,"EPHEMERIS_TYPE":0,"CLASSIFICATION_TYPE":"U","NORAD_CAT_ID":27438,"ELEMENT_SET_NO":999,"REV_AT_EPOCH":5035,"BSTAR":0,"MEAN_MOTION_DOT":9.5e-7,"MEAN_MOTION_DDOT":0},{"OBJECT_NAME":"GALAXY 3C (G-3C)","OBJECT_ID":"2002-030A","EPOCH":"2026-03-14T21:44:59.410752","MEAN_MOTION":1.00271948,"ECCENTRICITY":0.00013666,"INCLINATION":3.4882,"RA_OF_ASC_NODE":79.3024,"ARG_OF_PERICENTER":24.855,"MEAN_ANOMALY":299.7744,"EPHEMERIS_TYPE":0,"CLASSIFICATION_TYPE":"U","NORAD_CAT_ID":27445,"ELEMENT_SET_NO":999,"REV_AT_EPOCH":4554,"BSTAR":0,"MEAN_MOTION_DOT":-1.52e-6,"MEAN_MOTION_DDOT":0},{"OBJECT_NAME":"BLOCK DM-SL R/B","OBJECT_ID":"2002-030B","EPOCH":"2026-03-14T10:37:17.397408","MEAN_MOTION":1.96235761,"ECCENTRICITY":0.74969003,"INCLINATION":0.5842,"RA_OF_ASC_NODE":49.8398,"ARG_OF_PERICENTER":219.4887,"MEAN_ANOMALY":13.344,"EPHEMERIS_TYPE":0,"CLASSIFICATION_TYPE":"U","NORAD_CAT_ID":27446,"ELEMENT_SET_NO":999,"REV_AT_EPOCH":16884,"BSTAR":0.00012103525,"MEAN_MOTION_DOT":3.45e-6,"MEAN_MOTION_DDOT":0},{"OBJECT_NAME":"ARIANE 5 R/B","OBJECT_ID":"2002-035C","EPOCH":"2026-03-14T21:14:47.307264","MEAN_MOTION":2.22711759,"ECCENTRICITY":0.71606973,"INCLINATION":5.1541,"RA_OF_ASC_NODE":134.068,"ARG_OF_PERICENTER":6.1342,"MEAN_ANOMALY":66.9817,"EPHEMERIS_TYPE":0,"CLASSIFICATION_TYPE":"U","NORAD_CAT_ID":27462,"ELEMENT_SET_NO":999,"REV_AT_EPOCH":19284,"BSTAR":-0.0019096511,"MEAN_MOTION_DOT":-2.12e-6,"MEAN_MOTION_DDOT":0},{"OBJECT_NAME":"SL-12 R/B(2)","OBJECT_ID":"2002-039B","EPOCH":"2026-03-14T10:34:11.220960","MEAN_MOTION":2.01834876,"ECCENTRICITY":0.59040974,"INCLINATION":22.142,"RA_OF_ASC_NODE":155.1152,"ARG_OF_PERICENTER":196.0138,"MEAN_ANOMALY":131.6743,"EPHEMERIS_TYPE":0,"CLASSIFICATION_TYPE":"U","NORAD_CAT_ID":27504,"ELEMENT_SET_NO":999,"REV_AT_EPOCH":17364,"BSTAR":0,"MEAN_MOTION_DOT":7.4e-7,"MEAN_MOTION_DDOT":0},{"OBJECT_NAME":"ARIANE 5 DEB [SYLDA]","OBJECT_ID":"2002-040D","EPOCH":"2026-03-14T16:32:06.175968","MEAN_MOTION":2.25855776,"ECCENTRICITY":0.71626602,"INCLINATION":5.2383,"RA_OF_ASC_NODE":118.0953,"ARG_OF_PERICENTER":120.0517,"MEAN_ANOMALY":12.567,"EPHEMERIS_TYPE":0,"CLASSIFICATION_TYPE":"U","NORAD_CAT_ID":27511,"ELEMENT_SET_NO":999,"REV_AT_EPOCH":19372,"BSTAR":-0.0007925316,"MEAN_MOTION_DOT":-6.7e-7,"MEAN_MOTION_DDOT":0},{"OBJECT_NAME":"INTELSAT 906 (IS-906)","OBJECT_ID":"2002-041A","EPOCH":"2026-03-14T15:39:37.971648","MEAN_MOTION":1.002715,"ECCENTRICITY":0.00030367,"INCLINATION":5.5631,"RA_OF_ASC_NODE":74.0782,"ARG_OF_PERICENTER":277.5106,"MEAN_ANOMALY":119.7104,"EPHEMERIS_TYPE":0,"CLASSIFICATION_TYPE":"U","NORAD_CAT_ID":27513,"ELEMENT_SET_NO":999,"REV_AT_EPOCH":8608,"BSTAR":0,"MEAN_MOTION_DOT":1.5e-7,"MEAN_MOTION_DDOT":0},{"OBJECT_NAME":"HISPASAT 30W-4","OBJECT_ID":"2002-044A","EPOCH":"2026-03-14T15:32:38.642208","MEAN_MOTION":0.98928457,"ECCENTRICITY":0.00462811,"INCLINATION":6.3118,"RA_OF_ASC_NODE":71.7519,"ARG_OF_PERICENTER":142.9277,"MEAN_ANOMALY":230.9709,"EPHEMERIS_TYPE":0,"CLASSIFICATION_TYPE":"U","NORAD_CAT_ID":27528,"ELEMENT_SET_NO":999,"REV_AT_EPOCH":8581,"BSTAR":0,"MEAN_MOTION_DOT":2.8e-7,"MEAN_MOTION_DDOT":0},{"OBJECT_NAME":"INTEGRAL","OBJECT_ID":"2002-048A","EPOCH":"2026-03-14T08:26:19.406400","MEAN_MOTION":0.37578129,"ECCENTRICITY":0.86715794,"INCLINATION":90.5649,"RA_OF_ASC_NODE":351.8399,"ARG_OF_PERICENTER":263.1194,"MEAN_ANOMALY":310.8175,"EPHEMERIS_TYPE":0,"CLASSIFICATION_TYPE":"U","NORAD_CAT_ID":27540,"ELEMENT_SET_NO":999,"REV_AT_EPOCH":2627,"BSTAR":0,"MEAN_MOTION_DOT":5.08e-6,"MEAN_MOTION_DDOT":0},{"OBJECT_NAME":"EUTELSAT 33B","OBJECT_ID":"2002-051A","EPOCH":"2026-03-14T15:31:23.761920","MEAN_MOTION":1.00203856,"ECCENTRICITY":0.00144629,"INCLINATION":8.7531,"RA_OF_ASC_NODE":60.9067,"ARG_OF_PERICENTER":324.7542,"MEAN_ANOMALY":54.9269,"EPHEMERIS_TYPE":0,"CLASSIFICATION_TYPE":"U","NORAD_CAT_ID":27554,"ELEMENT_SET_NO":999,"REV_AT_EPOCH":4785,"BSTAR":0,"MEAN_MOTION_DOT":1.51e-6,"MEAN_MOTION_DDOT":0},{"OBJECT_NAME":"NIMIQ 2","OBJECT_ID":"2002-062A","EPOCH":"2026-03-14T13:07:23.118240","MEAN_MOTION":1.00271984,"ECCENTRICITY":0.00063527,"INCLINATION":9.2269,"RA_OF_ASC_NODE":57.8737,"ARG_OF_PERICENTER":299.4458,"MEAN_ANOMALY":262.5067,"EPHEMERIS_TYPE":0,"CLASSIFICATION_TYPE":"U","NORAD_CAT_ID":27632,"ELEMENT_SET_NO":999,"REV_AT_EPOCH":4323,"BSTAR":0,"MEAN_MOTION_DOT":-6.5e-7,"MEAN_MOTION_DDOT":0},{"OBJECT_NAME":"BREEZE-M R/B","OBJECT_ID":"2002-062B","EPOCH":"2026-03-14T04:17:26.865024","MEAN_MOTION":1.83739492,"ECCENTRICITY":0.49082253,"INCLINATION":17.7117,"RA_OF_ASC_NODE":9.3144,"ARG_OF_PERICENTER":65.1442,"MEAN_ANOMALY":90.044,"EPHEMERIS_TYPE":0,"CLASSIFICATION_TYPE":"U","NORAD_CAT_ID":27633,"ELEMENT_SET_NO":999,"REV_AT_EPOCH":15576,"BSTAR":0,"MEAN_MOTION_DOT":-6.1e-7,"MEAN_MOTION_DDOT":0},{"OBJECT_NAME":"ARIANE 3 DEB","OBJECT_ID":"1984-081F","EPOCH":"2026-03-14T19:05:07.168704","MEAN_MOTION":2.10229879,"ECCENTRICITY":0.71632605,"INCLINATION":5.3915,"RA_OF_ASC_NODE":60.0008,"ARG_OF_PERICENTER":155.8337,"MEAN_ANOMALY":269.9294,"EPHEMERIS_TYPE":0,"CLASSIFICATION_TYPE":"U","NORAD_CAT_ID":27648,"ELEMENT_SET_NO":999,"REV_AT_EPOCH":20449,"BSTAR":-0.0082316425,"MEAN_MOTION_DOT":-1.16e-6,"MEAN_MOTION_DDOT":0},{"OBJECT_NAME":"USA 167","OBJECT_ID":"2003-008A","EPOCH":"2026-03-14T17:05:55.138272","MEAN_MOTION":1.00271193,"ECCENTRICITY":0.00055052,"INCLINATION":10.7738,"RA_OF_ASC_NODE":44.2387,"ARG_OF_PERICENTER":292.9349,"MEAN_ANOMALY":329.8288,"EPHEMERIS_TYPE":0,"CLASSIFICATION_TYPE":"U","NORAD_CAT_ID":27691,"ELEMENT_SET_NO":999,"REV_AT_EPOCH":582,"BSTAR":0,"MEAN_MOTION_DOT":1.0e-7,"MEAN_MOTION_DDOT":0},{"OBJECT_NAME":"IABS R/B","OBJECT_ID":"2003-008C","EPOCH":"2026-03-14T14:34:55.077024","MEAN_MOTION":1.01117683,"ECCENTRICITY":0.0028016,"INCLINATION":13.4138,"RA_OF_ASC_NODE":11.0424,"ARG_OF_PERICENTER":226.4288,"MEAN_ANOMALY":133.355,"EPHEMERIS_TYPE":0,"CLASSIFICATION_TYPE":"U","NORAD_CAT_ID":27693,"ELEMENT_SET_NO":999,"REV_AT_EPOCH":2566,"BSTAR":0,"MEAN_MOTION_DOT":-3.0e-7,"MEAN_MOTION_DDOT":0}]
