DIRECTV 5 (TEMPO 1)     
1 27426U 02023A   26073.61794267 -.00000056  00000+0  00000+0 0  9998
2 27426   4.6349  76.4848 0003454 284.7480 283.3557  1.00272226 87173
SL-12 R/B(2)            
1 27429U 02023D   26073.63908943 -.00000043  00000+0  00000+0 0  9997
2 27429  16.9158 206.8728 5410070  51.8298  80.3720  1.90582557166149
INTELSAT 905 (IS-905)   
1 27438U 02027A   26067.69374378  .00000095  00000+0  00000+0 0  9995
2 27438   6.5009  71.0066 0003104 285.0028 282.9238  1.00272811 50358
GALAXY 3C (G-3C)        
1 27445U 02030A   26073.90624318 -.00000152  00000+0  00000+0 0  9995
2 27445   3.4882  79.3024 0001366  24.8550 299.7744  1.00271948 45546
BLOCK DM-SL R/B         
1 27446U 02030B   26073.44256247  .00000345  00000+0  12104-3 0  9992
2 27446   0.5842  49.8398 7496900 219.4887  13.3440  1.96235761168841
ARIANE 5 R/B            
1 27462U 02035C   26073.88526976 -.00000212  00000+0 -19097-2 0  9994
2 27462   5.1541 134.0680 7160697   6.1342  66.9817  2.22711759192840
SL-12 R/B(2)            
1 27504U 02039B   26073.44040765  .00000074  00000+0  00000+0 0  9999
2 27504  22.1420 155.1152 5904097 196.0138 131.6743  2.01834876173648
ARIANE 5 DEB [SYLDA]    
1 27511U 02040D   26073.68896037 -.00000067  00000+0 -79253-3 0  9990
2 27511   5.2383 118.0953 7162660 120.0517  12.5670  2.25855776193720
INTELSAT 906 (IS-906)   
1 27513U 02041A   26073.65252282  .00000015  00000+0  00000+0 0  9999
2 27513   5.5631  74.0782 0003036 277.5106 119.7104  1.00271500 86089
HISPASAT 30W-4          
1 27528U 02044A   26073.64766947  .00000028  00000+0  00000+0 0  9999
2 27528   6.3118  71.7519 0046281 142.9277 230.9709  0.98928457 85812
INTEGRAL                
1 27540U 02048A   26073.35161350  .00000508  00000+0  00000+0 0  9995
2 27540  90.5649 351.8399 8671579 263.1194 310.8175  0.37578129 26274
EUTELSAT 33B            
1 27554U 02051A   26073.64680280  .00000151  00000+0  00000+0 0  9998
2 27554   8.7531  60.9067 0014462 324.7542  54.9269  1.00203856 47855
NIMIQ 2                 
1 27632U 02062A   26073.54679535 -.00000065  00000+0  00000+0 0  9992
2 27632   9.2269  57.8737 0006352 299.4458 262.5067  1.00271984 43236
BREEZE-M R/B            
1 27633U 02062B   26073.17878316 -.00000061  00000+0  00000+0 0  9996
2 27633  17.7117   9.3144 4908225  65.1442  90.0440  1.83739492155767
ARIANE 3 DEB            
1 27648U 84081F   26073.79522186 -.00000116  00000+0 -82316-2 0  9997
2 27648   5.3915  60.0008 7163260 155.8337 269.9294  2.10229879204493
USA 167                 
1 27691U 03008A   26073.71244373  .00000010  00000+0  00000+0 0  9994
2 27691  10.7738  44.2387 0005505 292.9349 329.8288  1.00271193  5823
IABS R/B                
1 27693U 03008C   26073.60758191 -.00000030  00000+0  00000+0 0  9995
2 27693  13.4138  11.0424 0028016 226.4288 133.3550  1.01117683 25667
